GPS BIIA-23 (PRN 18)    
1 22877U 93068A   19252.43484575 -.00000032  00000-0  00000+0 0  9996
2 22877  54.7478  65.1166 0154600  81.7553 338.9492  2.00563392189560
GPS BIIR-2  (PRN 13)    
1 24876U 97035A   19252.24488412 -.00000031  00000-0  00000+0 0  9997
2 24876  55.4588 195.1803 0035246  68.0500 292.3000  2.00564084162150
GPS BIIR-3  (PRN 11)    
1 25933U 99055A   19252.40601272 -.00000074  00000-0  00000+0 0  9992
2 25933  52.1743  42.1871 0164821 111.3828 289.9882  2.00556984145976
GPS BIIR-4  (PRN 20)    
1 26360U 00025A   19252.57519031 -.00000028  00000-0  00000+0 0  9994
2 26360  53.3743 120.9185 0046716 141.0776  71.5115  2.00569150141677
GPS BIIR-5  (PRN 28)    
1 26407U 00040A   19252.44205698 -.00000046  00000-0  00000+0 0  9990
2 26407  56.1997 313.2812 0193241 276.3882 170.8998  2.00560281140342
GPS BIIR-6  (PRN 14)    
1 26605U 00071A   19252.10336237 -.00000034  00000-0  00000+0 0  9998
2 26605  55.0333 192.6001 0110027 249.8021 224.3982  2.00555338137930
GPS BIIR-8  (PRN 16)    
1 27663U 03005A   19252.15274439 -.00000047  00000-0  00000+0 0  9997
2 27663  56.2588 313.0690 0106297  32.2541 331.2964  2.00568767121704
GPS BIIR-9  (PRN 21)    
1 27704U 03010A   19252.46033736 -.00000033  00000-0  00000+0 0  9991
2 27704  54.4237  64.5589 0246814 278.8272 266.9999  2.00564773120507
GPS BIIR-10 (PRN 22)    
1 28129U 03058A   19251.94388646 -.00000038  00000-0  00000+0 0  9995
2 28129  53.1853 123.7143 0071604 285.6723  73.6152  2.00558687115193
GPS BIIR-11 (PRN 19)    
1 28190U 04009A   19252.50558354 -.00000104  00000-0  00000+0 0  9992
2 28190  56.2782  13.8297 0092237  85.5867 324.5996  2.00567248113382
GPS BIIR-12 (PRN 23)    
1 28361U 04023A   19252.27648684 -.00000043  00000-0  00000+0 0  9990
2 28361  54.0512 186.8746 0134316 232.8466 285.1895  2.00552724111466
GPS BIIR-13 (PRN 02)    
1 28474U 04045A   19252.57881681 -.00000032  00000-0  00000+0 0  9996
2 28474  54.7788  64.3365 0193315 261.6600 112.9009  2.00580323108831
GPS BIIRM-1 (PRN 17)    
1 28874U 05038A   19252.50360065 -.00000106  00000-0  00000+0 0  9996
2 28874  56.3964  11.1915 0133299 262.4144 163.5900  2.00576633102236
GPS BIIRM-2 (PRN 31)    
1 29486U 06042A   19250.51888289  .00000049  00000-0  00000+0 0  9999
2 29486  54.9673 249.7414 0093324 359.9285 358.7698  2.00561991 94909
GPS BIIRM-3 (PRN 12)    
1 29601U 06052A   19251.46326871 -.00000049  00000-0  00000+0 0  9999
2 29601  56.2412 312.0131 0072717  62.5875 298.2126  2.00574460 93840
GPS BIIRM-4 (PRN 15)    
1 32260U 07047A   19249.28724928 -.00000015  00000-0  00000+0 0  9994
2 32260  53.1746 182.6106 0115539  45.4875 315.4433  2.00553735 87178
GPS BIIRM-5 (PRN 29)    
1 32384U 07062A   19252.04955809 -.00000105  00000-0  00000+0 0  9990
2 32384  56.4833  11.8570 0009908 119.0800 210.2411  2.00561336 85963
GPS BIIRM-6 (PRN 07)    
1 32711U 08012A   19252.18655713  .00000039  00000-0  00000+0 0  9991
2 32711  54.7082 248.8450 0133123 221.3843 137.6125  2.00556511 84157
GPS BIIRM-8 (PRN 05)    
1 35752U 09043A   19252.40494253 -.00000033  00000-0  00000+0 0  9994
2 35752  54.4601 126.4808 0057194  42.8935 140.2518  2.00553266 73741
GPS BIIF-1  (PRN 25)    
1 36585U 10022A   19250.62011312 -.00000047  00000-0  00000+0 0  9996
2 36585  55.5192 308.2869 0082075  50.4939  27.8908  2.00564887 67955
GPS BIIF-2  (PRN 01)    
1 37753U 11036A   19252.38971086 -.00000023  00000-0  00000+0 0  9992
2 37753  55.9766  68.4061 0089575  42.4702 322.5766  2.00567077 59675
GPS BIIF-3  (PRN 24)    
1 38833U 12053A   19252.37292620  .00000032  00000-0  00000+0 0  9990
2 38833  53.7452 244.9572 0085060  33.3082 327.2305  2.00559811 50732
GPS BIIF-4  (PRN 27)    
1 39166U 13023A   19251.23232878 -.00000107  00000-0  00000+0 0  9995
2 39166  56.0736   7.9873 0070715  27.9888 332.3955  2.00566669 46257
GPS BIIF-5  (PRN 30)    
1 39533U 14008A   19252.22879084  .00000036  00000-0  00000+0 0  9993
2 39533  53.8721 250.3680 0042636 196.7569 163.1171  2.00553320 40632
GPS BIIF-6  (PRN 06)    
1 39741U 14026A   19252.50730677 -.00000024  00000-0  00000+0 0  9997
2 39741  55.9553  67.9273 0015825 291.2433  68.6333  2.00566362 38928
GPS BIIF-7  (PRN 09)    
1 40105U 14045A   19252.10078537 -.00000041  00000-0  00000+0 0  9999
2 40105  54.5778 187.2321 0011445  97.4996 262.6135  2.00571596 37360
GPS BIIF-8  (PRN 03)    
1 40294U 14068A   19251.97394418 -.00000037  00000-0  00000+0 0  9991
2 40294  55.2116 128.1190 0023596  37.6724 322.5667  2.00558694 35588
GPS BIIF-9  (PRN 26)    
1 40534U 15013A   19249.61638130 -.00000051  00000-0  00000+0 0  9995
2 40534  54.4448 306.5828 0038312   3.9435 356.1469  2.00564697 32604
GPS BIIF-10  (PRN 08)   
1 40730U 15033A   19251.27700328 -.00000108  00000-0  00000+0 0  9992
2 40730  55.5964   7.2879 0044662 343.9907  15.8759  2.00578355 30395
GPS BIIF-11  (PRN 10)   
1 41019U 15062A   19251.82023173 -.00000038  00000-0  00000+0 0  9994
2 41019  55.2115 127.9426 0049016 205.9209 153.9056  2.00564696 28225
GPS BIIF-12  (PRN 32)   
1 41328U 16007A   19251.91174934 -.00000039  00000-0  00000+0 0  9990
2 41328  54.8198 187.6511 0033696 220.0177 139.7172  2.00569057 26282
